RAVAN                   
1 41849U 16067B   19017.84396120 -.00000229  00000-0 -14208-4 0  9991
2 41849  97.9210 114.7743 0008643 161.7981 198.3551 14.98059875119264
CELTEE 1                
1 41850U 16067C   19018.20640560  .00000673  00000-0  63830-4 0  9990
2 41850  97.9184 114.1790 0009540 159.1094 201.0519 14.96929885119266
OPTICUBE 04             
1 41851U 16067D   19018.19503496  .00000201  00000-0  22877-4 0  9998
2 41851  97.9174 114.0155 0009475 162.1291 198.0265 14.96747568119258
AEROCUBE 8D             
1 41852U 16067E   19018.18674650  .00000052  00000-0  98562-5 0  9998
2 41852  97.9186 113.8353 0010139 163.4179 196.7375 14.96621258119239
AEROCUBE 8C             
1 41853U 16067F   19017.80490369  .00000673  00000-0  64377-4 0  9995
2 41853  97.9190 113.3965 0010602 164.2607 195.8946 14.96587670119175
PROMETHEUS 2-1          
1 41854U 16067G   19018.19288268  .00000359  00000-0  36700-4 0  9992
2 41854  97.9192 113.8623 0010934 164.4502 195.7057 14.96755229119234
PROMETHEUS 2-3          
1 41855U 16067H   19018.26245454  .00000483  00000-0  47541-4 0  9994
2 41855  97.9195 113.9427 0011139 164.3095 195.8474 14.96756847119247
INS-1B                  
1 41954U 17008G   19018.12637317  .00000852  00000-0  38593-4 0  9995
2 41954  97.4207  85.0315 0008236 327.0539  33.0183 15.23549181106727
BGUSAT                  
1 41999U 17008BD  19018.18148739  .00001441  00000-0  59794-4 0  9996
2 41999  97.4264  86.8568 0007507 344.6972  15.4038 15.25462334106194
DIDO-2                  
1 42000U 17008BE  19017.85355087  .00000647  00000-0  29973-4 0  9992
2 42000  97.4222  85.2794 0008071 349.4009  10.7057 15.23609546106080
PEASSS                  
1 42015U 17008BV  19017.71243198  .00000753  00000-0  33526-4 0  9999
2 42015  97.4226  85.8724 0006163   0.3503 359.7737 15.24498785106590
AL-FARABI 1             
1 42016U 17008BW  19018.49115831  .00001020  00000-0  43723-4 0  9996
2 42016  97.4235  87.0238 0005915 357.4246   2.6961 15.25038396106850
NAYIF-1 (EO-88)         
1 42017U 17008BX  19017.75998236  .00000958  00000-0  41196-4 0  9994
2 42017  97.4234  86.3075 0006005   0.4401 359.6841 15.25065378106762
HAVELSAT                
1 42700U 98067LH  19018.10485311  .00129449  17688-4  33908-3 0  9994
2 42700  51.6240 321.5687 0003123  89.0809 271.0556 15.94648149 95997
CXBN-2                  
1 42704U 98067LM  19018.07127932  .00123959  17084-4  33792-3 0  9997
2 42704  51.6281 323.6812 0002552 116.8897 243.2372 15.93925550 95888
PHOENIX                 
1 42706U 98067LP  19018.14466904  .00042535  00000-0  20952-3 0  9992
2 42706  51.6284 331.8058 0000834  86.0086 274.1012 15.81694054 95776
X-CUBESAT               
1 42707U 98067LQ  19018.29208900  .00316365  55790-4  48025-3 0  9995
2 42707  51.6208 316.6475 0004084 142.4630 217.6667 16.03959878 95973
QBEE50-LTU-OC           
1 42708U 98067LR  19018.26311301  .00144092  19206-4  37888-3 0  9996
2 42708  51.6245 321.9018 0003142 117.3209 242.8119 15.94526631 95860
ALTAIR PATHFINDER       
1 42711U 98067LS  19018.27820077  .00019821  00000-0  15546-3 0  9992
2 42711  51.6346 349.3960 0001896 290.0538  70.0256 15.71555951 95218
SHARC                   
1 42712U 98067LT  19018.49801060  .00052310  00000-0  29523-3 0  9998
2 42712  51.6327 345.6411 0001429  50.7335 309.3792 15.78616164 95524
ZA-AEROSAT              
1 42713U 98067LU  19018.31263275  .00041211  00000-0  21893-3 0  9990
2 42713  51.6347 335.9901 0000350  26.3058 333.7961 15.80061024 95392
CSUNSAT 1               
1 42715U 98067LW  19018.28964052  .00053878  00000-0  25632-3 0  9996
2 42715  51.6327 333.5738 0000645 334.9234  25.1737 15.82340429 95423
SPACECUBE               
1 42717U 98067LY  19018.06461826  .00130374  17704-4  35465-3 0  9990
2 42717  51.6199 323.4672 0003228  95.8013 264.3363 15.93936317 94908
NJUST-1                 
1 42722U 98067MB  19018.34802306  .00030604  00000-0  18436-3 0  9990
2 42722  51.6399 339.7779 0002615   2.8429 123.1926 15.77408462 94412
LILACSAT-1              
1 42725U 98067ME  19018.35561981  .00074986  00000-0  27806-3 0  9997
2 42725  51.6351 329.1710 0002904  43.5030  93.7449 15.87410796 94463
NSIGHT-1                
1 42726U 98067MF  19018.38363354  .00008425  00000-0  86816-4 0  9997
2 42726  51.6388 359.2730 0004448 330.8379  29.2367 15.65781347 94072
SNUSAT-1                
1 42727U 98067MG  19018.30159493  .00077214  00000-0  29434-3 0  9991
2 42727  51.6301 329.7504 0001229 358.5510   1.5491 15.86839985 94411
POLYITAN-2-SAU          
1 42732U 98067MM  19018.28219960  .00290967  48378-4  46266-3 0  9998
2 42732  51.6242 318.1789 0003248 152.7666 207.3516 16.03209742 94457
SNUSAT-1B               
1 42733U 98067MN  19018.31640764  .00101793  00000-0  32405-3 0  9997
2 42733  51.6266 326.0527 0000518  80.8186 279.2879 15.90348997 94357
BEEAGLESAT              
1 42736U 98067MR  19018.27612767  .00052739  00000-0  23759-3 0  9994
2 42736  51.6307 332.6561 0002876  10.3437 349.7625 15.83508831 94329
UCLSAT                  
1 42765U 17036A   19017.85187968  .00000825  00000-0  38716-4 0  9995
2 42765  97.3738  78.9573 0012807  49.4267 310.8082 15.22362740 87360
LITUANICASAT-2          
1 42768U 17036D   19018.41524343  .00001416  00000-0  64514-4 0  9995
2 42768  97.3764  79.0644 0016192  37.1431 323.0922 15.22186070 87292
AALTO-1                 
1 42775U 17036L   19018.17242732  .00000538  00000-0  27230-4 0  9993
2 42775  97.3727  78.3515 0015041  37.4694 322.7587 15.21082277 87177
URSA MAIOR              
1 42776U 17036M   19018.14540954  .00000577  00000-0  28888-4 0  9991
2 42776  97.3734  78.4273 0014834  37.7067 322.5205 15.21197240 87176
COMPASS 2               
1 42777U 17036N   19017.85751406  .00001093  00000-0  50244-4 0  9990
2 42777  97.3765  78.9438 0013658  41.2203 319.0062 15.22395033 87166
DIAMOND RED             
1 42783U 17036U   19017.84606207  .00000679  00000-0  32834-4 0  9998
2 42783  97.3738  78.6696 0013446  49.6243 310.6165 15.21884195 87158
PEGASUS                 
1 42784U 17036V   19017.85232958  .00000768  00000-0  36473-4 0  9990
2 42784  97.3742  78.8261 0013352  49.3923 310.8473 15.22138877 87167
DIAMOND GREEN           
1 42785U 17036W   19017.84484575  .00000679  00000-0  32821-4 0  9998
2 42785  97.3741  78.6880 0013355  50.2141 310.0269 15.21884068 87229
DIAMOND BLUE            
1 42786U 17036X   19017.84386012  .00000667  00000-0  32281-4 0  9993
2 42786  97.3740  78.6864 0013206  50.5227 309.7175 15.21884795 87222
NUDTSAT                 
1 42787U 17036Y   19017.93723545  .00001424  00000-0  63548-4 0  9992
2 42787  97.3773  79.3599 0013559  42.0530 318.1733 15.22935823 87040
SUCHAI                  
1 42788U 17036Z   19018.35748679  .00000937  00000-0  43387-4 0  9992
2 42788  97.3744  79.5258 0012880  47.5910 312.6414 15.22490238 87323
SKCUBE                  
1 42789U 17036AA  19017.90466068  .00000849  00000-0  39655-4 0  9997
2 42789  97.3741  79.0510 0012782  49.1561 311.0782 15.22416776 87177
VZLUSAT-1               
1 42790U 17036AB  19017.85884663  .00001142  00000-0  51557-4 0  9990
2 42790  97.3752  79.2864 0012349  49.1292 311.1013 15.22939933 87189
ROBUSTA-1B              
1 42792U 17036AD  19018.44318607  .00000903  00000-0  41840-4 0  9996
2 42792  97.3741  79.6893 0012330  48.4023 311.8268 15.22577151 87278
CICERO 6                
1 42793U 17036AE  19018.46921268  .00000645  00000-0  30990-4 0  9999
2 42793  97.3727  79.6093 0011595  49.9927 310.2326 15.22291028 87348
D-SAT                   
1 42794U 17036AF  19017.87375506  .00000280  00000-0  30133-4 0  9996
2 42794  97.5630  69.0686 0125305 287.7470  71.0106 14.91004127 85719
TOKI                    
1 42820U 98067MU  19018.18397423  .00051983  00000-0  25181-3 0  9998
2 42820  51.6317 337.3376 0000630  75.0880 285.0192 15.81967013 87711
MAZAALAI (NUMSAT-1)     
1 42822U 98067MW  19018.15704464  .00047599  00000-0  24079-3 0  9997
2 42822  51.6332 338.6893 0000597  27.9091 332.1943 15.81066036 87678
BRAC ONNESHA            
1 42823U 98067MX  19017.87050782  .00047504  00000-0  23553-3 0  9995
2 42823  51.6304 339.7763 0001378 315.3167  44.7724 15.81502682 87633
NIGERIAEDUSAT-1         
1 42824U 98067MY  19018.13468888  .00046992  00000-0  24012-3 0  9997
2 42824  51.6341 339.3494 0001822 331.6052  28.4850 15.80852219 87654
CORVUS BC2              
1 42846U 17042X   19017.76922031 -.00000047  00000-0  68992-6 0  9998
2 42846  97.5818 277.6698 0009124 192.7851 167.3138 14.91910454 82364
CORVUS BC1              
1 42847U 17042Y   19018.20208526  .00000256  00000-0  30560-4 0  9994
2 42847  97.5819 278.1683 0008836 190.6971 169.4062 14.92010645 82425
SILU-1 (SILKROAD 1)     
1 42903U 17021F   19018.44761113  .00058222  93777-5  21528-3 0  9993
2 42903  42.7729  91.5541 0015725  33.5346  37.2816 15.87875560 83943
MIRATA                  
1 43015U 17073C   19017.77963631  .00000802  00000-0  69022-4 0  9994
2 43015  97.7167 304.9629 0255300 292.8784  64.5659 14.78647594 62840
MAKERSAT 0              
1 43016U 17073D   19017.77363343  .00000578  00000-0  51296-4 0  9993
2 43016  97.7199 305.1365 0257093 293.0585  64.3709 14.78499182 62830
ASTERIA                 
1 43020U 98067NH  19018.45300689  .00014688  00000-0  15310-3 0  9993
2 43020  51.6425   8.8481 0001343 271.7519  88.3322 15.64790000 66130
DELLINGR (RBLE)         
1 43021U 98067NJ  19018.44948065  .00006558  00000-0  84078-4 0  9994
2 43021  51.6398  14.7529 0001460 249.5573 110.5263 15.60528844 66056
OSIRIS-3U               
1 43027U 98067NL  19018.37401126  .00120851  00000-0  45901-3 0  9998
2 43027  51.6350 347.7640 0002107 100.1391 259.9851 15.86738697 66285
AEROCUBE 7B             
1 43042U 17071F   19018.50215450  .00002108  00000-0  61563-4 0  9996
2 43042  51.6393  71.5263 0004639 333.1936  26.8808 15.40186850 62778
